[
  {"placeName":"上海","placeSpell":"shanghai","placeId":1},
  {"placeName":"北京","placeSpell":"beijing","placeId":2},
  {"placeName":"C","placeSpell":"C","placeId":3},
  {"placeName":"D","placeSpell":"D","placeId":4},
  {"placeName":"E","placeSpell":"E","placeId":5},
  {"placeName":"A1","placeSpell":"A1","placeId":6},
  {"placeName":"B1","placeSpell":"B1","placeId":7},
  {"placeName":"C1","placeSpell":"C1","placeId":8},
  {"placeName":"D1","placeSpell":"D1","placeId":9},
  {"placeName":"E1","placeSpell":"E1","placeId":10},
  {"placeName":"A","placeSpell":"A","placeId":11},
  {"placeName":"B","placeSpell":"B","placeId":12},
  {"placeName":"C","placeSpell":"C","placeId":13},
  {"placeName":"D","placeSpell":"D","placeId":14},
  {"placeName":"E","placeSpell":"E","placeId":15},
  {"placeName":"A1","placeSpell":"A1","placeId":16},
  {"placeName":"B1","placeSpell":"B1","placeId":17},
  {"placeName":"C1","placeSpell":"C1","placeId":18},
  {"placeName":"D1","placeSpell":"D1","placeId":19},
  {"placeName":"E1","placeSpell":"E1","placeId":20},
  {"placeName":"Q1","placeSpell":"Q1","placeId":21}
]